ONEWEB-0656             
1 55817U 23029X   25337.90307544  .00000036  00000+0  56943-4 0  9993
2 55817  87.9194 313.3722 0001526  97.1032 263.0275 13.20769568135374
ONEWEB-0657             
1 55818U 23029Y   25337.92056916  .00000009  00000+0 -10786-4 0  9996
2 55818  87.9190 343.8390 0001054  79.6436 280.4815 13.19725883133156
ONEWEB-0658             
1 55819U 23029Z   25337.76418381  .00000077  00000+0  16013-3 0  9999
2 55819  87.9208 343.8220 0002055  79.2931 280.8433 13.19724808133142
ONEWEB-0660             
1 55820U 23029AA  25337.73230887  .00000250  00000+0  64063-3 0  9992
2 55820  87.8987 328.6319 0002080  90.1006 270.0362 13.14503529133726
ONEWEB-0661             
1 55821U 23029AB  25337.91943077 -.00000090  00000+0 -27686-3 0  9999
2 55821  87.8981 328.6611 0002087  93.4138 266.7230 13.14503860133730
ONEWEB-0662             
1 55822U 23029AC  25337.72596397  .00000197  00000+0  49612-3 0  9997
2 55822  87.8981 328.7054 0002109  88.7892 271.3479 13.14504254133759
ONEWEB-0663             
1 55823U 23029AD  25337.49597428 -.00009731  00000+0 -23989-1 0  9990
2 55823  87.9206 313.5191 0002879  65.9399 294.2035 13.20778826135319
ONEWEB-0664             
1 55824U 23029AE  25337.66318092  .00000164  00000+0  37182-3 0  9999
2 55824  87.9188 313.4926 0001952  95.9351 264.2005 13.20773696135332
